[{"OBJECT_NAME":"IRIDIUM 33 DEB","OBJECT_ID":"1997-051QS","EPOCH":"2026-02-28T18:23:09.106368","MEAN_MOTION":14.4045851,"ECCENTRICITY":0.0131255,"INCLINATION":86.3903,"RA_OF_ASC_NODE":184.5043,"ARG_OF_PERICENTER":0.7677,"MEAN_ANOMALY":359.3698,"EPHEMERIS_TYPE":0,"CLASSIFICATION_TYPE":"U","NORAD_CAT_ID":35620,"ELEMENT_SET_NO":999,"REV_AT_EPOCH":61088,"BSTAR":0.0022479854,"MEAN_MOTION_DOT":7.934e-5,"MEAN_MOTION_DDOT":0},{"OBJECT_NAME":"IRIDIUM 33 DEB","OBJECT_ID":"1997-051QU","EPOCH":"2026-02-28T05:07:55.152192","MEAN_MOTION":15.13229248,"ECCENTRICITY":0.0006092,"INCLINATION":86.1943,"RA_OF_ASC_NODE":225.1166,"ARG_OF_PERICENTER":336.3474,"MEAN_ANOMALY":148.3739,"EPHEMERIS_TYPE":0,"CLASSIFICATION_TYPE":"U","NORAD_CAT_ID":35622,"ELEMENT_SET_NO":999,"REV_AT_EPOCH":88528,"BSTAR":0.0023297,"MEAN_MOTION_DOT":0.00041596,"MEAN_MOTION_DDOT":0},{"OBJECT_NAME":"IRIDIUM 33 DEB","OBJECT_ID":"1997-051RA","EPOCH":"2026-02-27T01:00:12.515328","MEAN_MOTION":14.69039807,"ECCENTRICITY":0.00142954,"INCLINATION":86.3598,"RA_OF_ASC_NODE":335.0172,"ARG_OF_PERICENTER":68.7722,"MEAN_ANOMALY":291.5019,"EPHEMERIS_TYPE":0,"CLASSIFICATION_TYPE":"U","NORAD_CAT_ID":35628,"ELEMENT_SET_NO":999,"REV_AT_EPOCH":87566,"BSTAR":0.0013981421,"MEAN_MOTION_DOT":8.239e-5,"MEAN_MOTION_DDOT":0},{"OBJECT_NAME":"IRIDIUM 33 DEB","OBJECT_ID":"1997-051RD","EPOCH":"2026-03-02T06:21:33.541056","MEAN_MOTION":14.47608505,"ECCENTRICITY":0.00152423,"INCLINATION":86.3721,"RA_OF_ASC_NODE":346.7362,"ARG_OF_PERICENTER":210.5406,"MEAN_ANOMALY":311.9361,"EPHEMERIS_TYPE":0,"CLASSIFICATION_TYPE":"U","NORAD_CAT_ID":35631,"ELEMENT_SET_NO":999,"REV_AT_EPOCH":88347,"BSTAR":0.00044601063,"MEAN_MOTION_DOT":1.664e-5,"MEAN_MOTION_DDOT":0},{"OBJECT_NAME":"IRIDIUM 33 DEB","OBJECT_ID":"1997-051RJ","EPOCH":"2026-03-02T12:34:40.211328","MEAN_MOTION":14.22198482,"ECCENTRICITY":0.01546671,"INCLINATION":86.1055,"RA_OF_ASC_NODE":346.1701,"ARG_OF_PERICENTER":25.3912,"MEAN_ANOMALY":152.7968,"EPHEMERIS_TYPE":0,"CLASSIFICATION_TYPE":"U","NORAD_CAT_ID":35680,"ELEMENT_SET_NO":999,"REV_AT_EPOCH":61834,"BSTAR":0.0041639628,"MEAN_MOTION_DOT":0.00010457,"MEAN_MOTION_DDOT":0},{"OBJECT_NAME":"IRIDIUM 33 DEB","OBJECT_ID":"1997-051RX","EPOCH":"2026-03-01T14:34:05.594016","MEAN_MOTION":14.72288041,"ECCENTRICITY":0.00190833,"INCLINATION":86.3261,"RA_OF_ASC_NODE":289.7694,"ARG_OF_PERICENTER":290.1258,"MEAN_ANOMALY":69.7905,"EPHEMERIS_TYPE":0,"CLASSIFICATION_TYPE":"U","NORAD_CAT_ID":35744,"ELEMENT_SET_NO":999,"REV_AT_EPOCH":88491,"BSTAR":0.0010079117,"MEAN_MOTION_DOT":6.408e-5,"MEAN_MOTION_DDOT":0},{"OBJECT_NAME":"IRIDIUM 33 DEB","OBJECT_ID":"1997-051SF","EPOCH":"2026-03-01T09:35:30.295680","MEAN_MOTION":14.85465697,"ECCENTRICITY":0.00091515,"INCLINATION":86.3336,"RA_OF_ASC_NODE":293.7608,"ARG_OF_PERICENTER":244.0916,"MEAN_ANOMALY":115.9366,"EPHEMERIS_TYPE":0,"CLASSIFICATION_TYPE":"U","NORAD_CAT_ID":35797,"ELEMENT_SET_NO":999,"REV_AT_EPOCH":88507,"BSTAR":0.001602649,"MEAN_MOTION_DOT":0.00013868,"MEAN_MOTION_DDOT":0},{"OBJECT_NAME":"IRIDIUM 33 DEB","OBJECT_ID":"1997-051SQ","EPOCH":"2026-03-02T01:43:53.167296","MEAN_MOTION":14.58379482,"ECCENTRICITY":0.00131026,"INCLINATION":86.3497,"RA_OF_ASC_NODE":345.6804,"ARG_OF_PERICENTER":150.598,"MEAN_ANOMALY":209.5969,"EPHEMERIS_TYPE":0,"CLASSIFICATION_TYPE":"U","NORAD_CAT_ID":35806,"ELEMENT_SET_NO":999,"REV_AT_EPOCH":87480,"BSTAR":0.0012548606,"MEAN_MOTION_DOT":5.839e-5,"MEAN_MOTION_DDOT":0},{"OBJECT_NAME":"IRIDIUM 33 DEB","OBJECT_ID":"1997-051ST","EPOCH":"2026-03-02T09:52:47.724672","MEAN_MOTION":14.77775546,"ECCENTRICITY":0.00119409,"INCLINATION":86.3258,"RA_OF_ASC_NODE":299.0145,"ARG_OF_PERICENTER":341.4382,"MEAN_ANOMALY":18.64,"EPHEMERIS_TYPE":0,"CLASSIFICATION_TYPE":"U","NORAD_CAT_ID":35809,"ELEMENT_SET_NO":999,"REV_AT_EPOCH":87983,"BSTAR":0.0015133331,"MEAN_MOTION_DOT":0.00010902,"MEAN_MOTION_DDOT":0},{"OBJECT_NAME":"IRIDIUM 33 DEB","OBJECT_ID":"1997-051SW","EPOCH":"2026-03-01T20:55:00.509088","MEAN_MOTION":14.43516052,"ECCENTRICITY":0.0015422,"INCLINATION":86.3767,"RA_OF_ASC_NODE":25.0475,"ARG_OF_PERICENTER":276.4022,"MEAN_ANOMALY":83.5423,"EPHEMERIS_TYPE":0,"CLASSIFICATION_TYPE":"U","NORAD_CAT_ID":35846,"ELEMENT_SET_NO":999,"REV_AT_EPOCH":72470,"BSTAR":0.00074172,"MEAN_MOTION_DOT":2.531e-5,"MEAN_MOTION_DDOT":0},{"OBJECT_NAME":"IRIDIUM 33 DEB","OBJECT_ID":"1997-051SY","EPOCH":"2026-03-02T01:20:09.688416","MEAN_MOTION":14.80997389,"ECCENTRICITY":0.00056045,"INCLINATION":86.3928,"RA_OF_ASC_NODE":340.3975,"ARG_OF_PERICENTER":311.4082,"MEAN_ANOMALY":48.6658,"EPHEMERIS_TYPE":0,"CLASSIFICATION_TYPE":"U","NORAD_CAT_ID":35848,"ELEMENT_SET_NO":999,"REV_AT_EPOCH":67863,"BSTAR":0.0018928425,"MEAN_MOTION_DOT":0.00014702,"MEAN_MOTION_DDOT":0},{"OBJECT_NAME":"IRIDIUM 33 DEB","OBJECT_ID":"1997-051TA","EPOCH":"2026-02-28T23:16:28.587648","MEAN_MOTION":14.81111763,"ECCENTRICITY":0.0007883,"INCLINATION":86.3498,"RA_OF_ASC_NODE":308.605,"ARG_OF_PERICENTER":300.3336,"MEAN_ANOMALY":59.7105,"EPHEMERIS_TYPE":0,"CLASSIFICATION_TYPE":"U","NORAD_CAT_ID":35850,"ELEMENT_SET_NO":999,"REV_AT_EPOCH":72514,"BSTAR":0.0014879,"MEAN_MOTION_DOT":0.00011591,"MEAN_MOTION_DDOT":0},{"OBJECT_NAME":"IRIDIUM 33 DEB","OBJECT_ID":"1997-051TY","EPOCH":"2026-02-24T00:20:24.601632","MEAN_MOTION":14.83232039,"ECCENTRICITY":0.00097703,"INCLINATION":86.3414,"RA_OF_ASC_NODE":309.4145,"ARG_OF_PERICENTER":317.6138,"MEAN_ANOMALY":42.4329,"EPHEMERIS_TYPE":0,"CLASSIFICATION_TYPE":"U","NORAD_CAT_ID":35915,"ELEMENT_SET_NO":999,"REV_AT_EPOCH":9171,"BSTAR":0.0014389833,"MEAN_MOTION_DOT":0.00011798,"MEAN_MOTION_DDOT":0},{"OBJECT_NAME":"IRIDIUM 33 DEB","OBJECT_ID":"1997-051UB","EPOCH":"2026-02-26T06:53:07.156032","MEAN_MOTION":14.51967703,"ECCENTRICITY":0.0023543,"INCLINATION":86.3995,"RA_OF_ASC_NODE":43.351,"ARG_OF_PERICENTER":281.1674,"MEAN_ANOMALY":144.2213,"EPHEMERIS_TYPE":0,"CLASSIFICATION_TYPE":"U","NORAD_CAT_ID":35918,"ELEMENT_SET_NO":999,"REV_AT_EPOCH":86303,"BSTAR":0.001022,"MEAN_MOTION_DOT":4.159e-5,"MEAN_MOTION_DDOT":0},{"OBJECT_NAME":"IRIDIUM 33 DEB","OBJECT_ID":"1997-051UN","EPOCH":"2026-02-27T07:57:29.951424","MEAN_MOTION":15.08878455,"ECCENTRICITY":0.00154372,"INCLINATION":86.3417,"RA_OF_ASC_NODE":276.1631,"ARG_OF_PERICENTER":101.2586,"MEAN_ANOMALY":259.0387,"EPHEMERIS_TYPE":0,"CLASSIFICATION_TYPE":"U","NORAD_CAT_ID":35929,"ELEMENT_SET_NO":999,"REV_AT_EPOCH":88932,"BSTAR":0.0024081873,"MEAN_MOTION_DOT":0.0003821,"MEAN_MOTION_DDOT":0},{"OBJECT_NAME":"IRIDIUM 33 DEB","OBJECT_ID":"1997-051US","EPOCH":"2026-03-02T13:37:07.328352","MEAN_MOTION":14.41643676,"ECCENTRICITY":0.0017606,"INCLINATION":86.3456,"RA_OF_ASC_NODE":1.133,"ARG_OF_PERICENTER":325.5602,"MEAN_ANOMALY":159.5107,"EPHEMERIS_TYPE":0,"CLASSIFICATION_TYPE":"U","NORAD_CAT_ID":36011,"ELEMENT_SET_NO":999,"REV_AT_EPOCH":65690,"BSTAR":0.00062224,"MEAN_MOTION_DOT":2.048e-5,"MEAN_MOTION_DDOT":0}]
